<?xml version="1.0" encoding="UTF-8"?>
<gpx version="1.1" creator="frechet-edit course audit" xmlns="http://www.topografix.com/GPX/1/1">
  <trk><name>Marina Bay loop (synthetic course)</name><trkseg>
    <trkpt lat="1.2868000" lon="103.8544600"></trkpt>
    <trkpt lat="1.2879000" lon="103.8542000"></trkpt>
    <trkpt lat="1.2890000" lon="103.8544000"></trkpt>
    <trkpt lat="1.2896000" lon="103.8556000"></trkpt>
    <trkpt lat="1.2893000" lon="103.8573000"></trkpt>
    <trkpt lat="1.2888000" lon="103.8590000"></trkpt>
    <trkpt lat="1.2884000" lon="103.8603000"></trkpt>
    <trkpt lat="1.2870000" lon="103.8607000"></trkpt>
    <trkpt lat="1.2852000" lon="103.8600000"></trkpt>
    <trkpt lat="1.2839000" lon="103.8589000"></trkpt>
    <trkpt lat="1.2824000" lon="103.8576000"></trkpt>
    <trkpt lat="1.2813000" lon="103.8560000"></trkpt>
    <trkpt lat="1.2821000" lon="103.8543000"></trkpt>
    <trkpt lat="1.2831000" lon="103.8529000"></trkpt>
    <trkpt lat="1.2843000" lon="103.8530000"></trkpt>
    <trkpt lat="1.2856000" lon="103.8537000"></trkpt>
    <trkpt lat="1.2868000" lon="103.8544600"></trkpt>
  </trkseg></trk>
</gpx>
