{
 "type": "Feature",
 "properties": {
  "name": "Marina Bay loop (synthetic course)",
  "note": "synthetic course, not a surveyed route"
 },
 "geometry": {
  "type": "LineString",
  "coordinates": [
   [
    103.85446,
    1.2868
   ],
   [
    103.8542,
    1.2879
   ],
   [
    103.8544,
    1.289
   ],
   [
    103.8556,
    1.2896
   ],
   [
    103.8573,
    1.2893
   ],
   [
    103.859,
    1.2888
   ],
   [
    103.8603,
    1.2884
   ],
   [
    103.8607,
    1.287
   ],
   [
    103.86,
    1.2852
   ],
   [
    103.8589,
    1.2839
   ],
   [
    103.8576,
    1.2824
   ],
   [
    103.856,
    1.2813
   ],
   [
    103.8543,
    1.2821
   ],
   [
    103.8529,
    1.2831
   ],
   [
    103.853,
    1.2843
   ],
   [
    103.8537,
    1.2856
   ],
   [
    103.85446,
    1.2868
   ]
  ]
 }
}
