<?xml version="1.0" encoding="UTF-8"?>
<gpx version="1.1" creator="frechet-edit course audit" xmlns="http://www.topografix.com/GPX/1/1">
  <trk><name>Shortcut run (synthetic)</name><trkseg>
    <trkpt lat="1.2868000" lon="103.8544600"><time>2026-03-07T06:30:00Z</time></trkpt>
    <trkpt lat="1.2868582" lon="103.8544469"><time>2026-03-07T06:30:02Z</time></trkpt>
    <trkpt lat="1.2869140" lon="103.8544174"><time>2026-03-07T06:30:04Z</time></trkpt>
    <trkpt lat="1.2869713" lon="103.8543991"><time>2026-03-07T06:30:06Z</time></trkpt>
    <trkpt lat="1.2870295" lon="103.8543714"><time>2026-03-07T06:30:08Z</time></trkpt>
    <trkpt lat="1.2871008" lon="103.8543630"><time>2026-03-07T06:30:10Z</time></trkpt>
    <trkpt lat="1.2871604" lon="103.8543550"><time>2026-03-07T06:30:12Z</time></trkpt>
    <trkpt lat="1.2872370" lon="103.8543288"><time>2026-03-07T06:30:14Z</time></trkpt>
    <trkpt lat="1.2873008" lon="103.8542992"><time>2026-03-07T06:30:16Z</time></trkpt>
    <trkpt lat="1.2873444" lon="103.8542865"><time>2026-03-07T06:30:18Z</time></trkpt>
    <trkpt lat="1.2873910" lon="103.8542706"><time>2026-03-07T06:30:20Z</time></trkpt>
    <trkpt lat="1.2874437" lon="103.8542651"><time>2026-03-07T06:30:22Z</time></trkpt>
    <trkpt lat="1.2874797" lon="103.8542700"><time>2026-03-07T06:30:24Z</time></trkpt>
    <trkpt lat="1.2875263" lon="103.8542589"><time>2026-03-07T06:30:26Z</time></trkpt>
    <trkpt lat="1.2875614" lon="103.8542554"><time>2026-03-07T06:30:28Z</time></trkpt>
    <trkpt lat="1.2876211" lon="103.8542401"><time>2026-03-07T06:30:30Z</time></trkpt>
    <trkpt lat="1.2876883" lon="103.8542136"><time>2026-03-07T06:30:32Z</time></trkpt>
    <trkpt lat="1.2877548" lon="103.8542046"><time>2026-03-07T06:30:34Z</time></trkpt>
    <trkpt lat="1.2878009" lon="103.8542030"><time>2026-03-07T06:30:36Z</time></trkpt>
    <trkpt lat="1.2878554" lon="103.8541832"><time>2026-03-07T06:30:38Z</time></trkpt>
    <trkpt lat="1.2879207" lon="103.8541876"><time>2026-03-07T06:30:40Z</time></trkpt>
    <trkpt lat="1.2879713" lon="103.8541920"><time>2026-03-07T06:30:42Z</time></trkpt>
    <trkpt lat="1.2880226" lon="103.8541959"><time>2026-03-07T06:30:44Z</time></trkpt>
    <trkpt lat="1.2880787" lon="103.8542059"><time>2026-03-07T06:30:46Z</time></trkpt>
    <trkpt lat="1.2881311" lon="103.8542386"><time>2026-03-07T06:30:48Z</time></trkpt>
    <trkpt lat="1.2881934" lon="103.8542465"><time>2026-03-07T06:30:50Z</time></trkpt>
    <trkpt lat="1.2882471" lon="103.8542479"><time>2026-03-07T06:30:52Z</time></trkpt>
    <trkpt lat="1.2883123" lon="103.8542596"><time>2026-03-07T06:30:54Z</time></trkpt>
    <trkpt lat="1.2883829" lon="103.8542579"><time>2026-03-07T06:30:56Z</time></trkpt>
    <trkpt lat="1.2884405" lon="103.8542667"><time>2026-03-07T06:30:58Z</time></trkpt>
    <trkpt lat="1.2885030" lon="103.8542875"><time>2026-03-07T06:31:00Z</time></trkpt>
    <trkpt lat="1.2885602" lon="103.8543096"><time>2026-03-07T06:31:02Z</time></trkpt>
    <trkpt lat="1.2886188" lon="103.8543203"><time>2026-03-07T06:31:04Z</time></trkpt>
    <trkpt lat="1.2886861" lon="103.8543212"><time>2026-03-07T06:31:06Z</time></trkpt>
    <trkpt lat="1.2887282" lon="103.8543249"><time>2026-03-07T06:31:08Z</time></trkpt>
    <trkpt lat="1.2887824" lon="103.8543572"><time>2026-03-07T06:31:10Z</time></trkpt>
    <trkpt lat="1.2888566" lon="103.8543559"><time>2026-03-07T06:31:12Z</time></trkpt>
    <trkpt lat="1.2889216" lon="103.8543638"><time>2026-03-07T06:31:14Z</time></trkpt>
    <trkpt lat="1.2889731" lon="103.8543669"><time>2026-03-07T06:31:16Z</time></trkpt>
    <trkpt lat="1.2890085" lon="103.8543620"><time>2026-03-07T06:31:18Z</time></trkpt>
    <trkpt lat="1.2890345" lon="103.8544038"><time>2026-03-07T06:31:20Z</time></trkpt>
    <trkpt lat="1.2890836" lon="103.8544664"><time>2026-03-07T06:31:22Z</time></trkpt>
    <trkpt lat="1.2891170" lon="103.8545099"><time>2026-03-07T06:31:24Z</time></trkpt>
    <trkpt lat="1.2891383" lon="103.8545583"><time>2026-03-07T06:31:26Z</time></trkpt>
    <trkpt lat="1.2891468" lon="103.8545982"><time>2026-03-07T06:31:28Z</time></trkpt>
    <trkpt lat="1.2891594" lon="103.8546459"><time>2026-03-07T06:31:30Z</time></trkpt>
    <trkpt lat="1.2891777" lon="103.8547016"><time>2026-03-07T06:31:32Z</time></trkpt>
    <trkpt lat="1.2892050" lon="103.8547694"><time>2026-03-07T06:31:34Z</time></trkpt>
    <trkpt lat="1.2892420" lon="103.8548252"><time>2026-03-07T06:31:36Z</time></trkpt>
    <trkpt lat="1.2892665" lon="103.8548843"><time>2026-03-07T06:31:38Z</time></trkpt>
    <trkpt lat="1.2892903" lon="103.8549368"><time>2026-03-07T06:31:40Z</time></trkpt>
    <trkpt lat="1.2893232" lon="103.8550008"><time>2026-03-07T06:31:42Z</time></trkpt>
    <trkpt lat="1.2893558" lon="103.8550569"><time>2026-03-07T06:31:44Z</time></trkpt>
    <trkpt lat="1.2893850" lon="103.8551037"><time>2026-03-07T06:31:46Z</time></trkpt>
    <trkpt lat="1.2894223" lon="103.8551421"><time>2026-03-07T06:31:48Z</time></trkpt>
    <trkpt lat="1.2894472" lon="103.8551964"><time>2026-03-07T06:31:50Z</time></trkpt>
    <trkpt lat="1.2894703" lon="103.8552555"><time>2026-03-07T06:31:52Z</time></trkpt>
    <trkpt lat="1.2895054" lon="103.8553057"><time>2026-03-07T06:31:54Z</time></trkpt>
    <trkpt lat="1.2895190" lon="103.8553595"><time>2026-03-07T06:31:56Z</time></trkpt>
    <trkpt lat="1.2895257" lon="103.8554165"><time>2026-03-07T06:31:58Z</time></trkpt>
    <trkpt lat="1.2895488" lon="103.8554851"><time>2026-03-07T06:32:00Z</time></trkpt>
    <trkpt lat="1.2895963" lon="103.8555366"><time>2026-03-07T06:32:02Z</time></trkpt>
    <trkpt lat="1.2896210" lon="103.8556089"><time>2026-03-07T06:32:04Z</time></trkpt>
    <trkpt lat="1.2896328" lon="103.8556679"><time>2026-03-07T06:32:06Z</time></trkpt>
    <trkpt lat="1.2896188" lon="103.8557391"><time>2026-03-07T06:32:08Z</time></trkpt>
    <trkpt lat="1.2896184" lon="103.8557938"><time>2026-03-07T06:32:10Z</time></trkpt>
    <trkpt lat="1.2896128" lon="103.8558501"><time>2026-03-07T06:32:12Z</time></trkpt>
    <trkpt lat="1.2895881" lon="103.8559097"><time>2026-03-07T06:32:14Z</time></trkpt>
    <trkpt lat="1.2895495" lon="103.8559546"><time>2026-03-07T06:32:16Z</time></trkpt>
    <trkpt lat="1.2895523" lon="103.8560063"><time>2026-03-07T06:32:18Z</time></trkpt>
    <trkpt lat="1.2895533" lon="103.8560498"><time>2026-03-07T06:32:20Z</time></trkpt>
    <trkpt lat="1.2895406" lon="103.8561152"><time>2026-03-07T06:32:22Z</time></trkpt>
    <trkpt lat="1.2895296" lon="103.8561700"><time>2026-03-07T06:32:24Z</time></trkpt>
    <trkpt lat="1.2895150" lon="103.8562165"><time>2026-03-07T06:32:26Z</time></trkpt>
    <trkpt lat="1.2895095" lon="103.8562718"><time>2026-03-07T06:32:28Z</time></trkpt>
    <trkpt lat="1.2894903" lon="103.8563355"><time>2026-03-07T06:32:30Z</time></trkpt>
    <trkpt lat="1.2894714" lon="103.8563990"><time>2026-03-07T06:32:32Z</time></trkpt>
    <trkpt lat="1.2894646" lon="103.8564522"><time>2026-03-07T06:32:34Z</time></trkpt>
    <trkpt lat="1.2894525" lon="103.8565071"><time>2026-03-07T06:32:36Z</time></trkpt>
    <trkpt lat="1.2894364" lon="103.8565650"><time>2026-03-07T06:32:38Z</time></trkpt>
    <trkpt lat="1.2894242" lon="103.8566137"><time>2026-03-07T06:32:40Z</time></trkpt>
    <trkpt lat="1.2894131" lon="103.8566789"><time>2026-03-07T06:32:42Z</time></trkpt>
    <trkpt lat="1.2894053" lon="103.8567529"><time>2026-03-07T06:32:44Z</time></trkpt>
    <trkpt lat="1.2893908" lon="103.8567773"><time>2026-03-07T06:32:46Z</time></trkpt>
    <trkpt lat="1.2893811" lon="103.8568500"><time>2026-03-07T06:32:48Z</time></trkpt>
    <trkpt lat="1.2893626" lon="103.8569007"><time>2026-03-07T06:32:50Z</time></trkpt>
    <trkpt lat="1.2893633" lon="103.8569693"><time>2026-03-07T06:32:52Z</time></trkpt>
    <trkpt lat="1.2893575" lon="103.8570306"><time>2026-03-07T06:32:54Z</time></trkpt>
    <trkpt lat="1.2893554" lon="103.8570992"><time>2026-03-07T06:32:56Z</time></trkpt>
    <trkpt lat="1.2893522" lon="103.8571405"><time>2026-03-07T06:32:58Z</time></trkpt>
    <trkpt lat="1.2893398" lon="103.8571967"><time>2026-03-07T06:33:00Z</time></trkpt>
    <trkpt lat="1.2893289" lon="103.8572589"><time>2026-03-07T06:33:02Z</time></trkpt>
    <trkpt lat="1.2893333" lon="103.8572840"><time>2026-03-07T06:33:04Z</time></trkpt>
    <trkpt lat="1.2892897" lon="103.8573080"><time>2026-03-07T06:33:06Z</time></trkpt>
    <trkpt lat="1.2892333" lon="103.8572941"><time>2026-03-07T06:33:08Z</time></trkpt>
    <trkpt lat="1.2891776" lon="103.8572715"><time>2026-03-07T06:33:10Z</time></trkpt>
    <trkpt lat="1.2891154" lon="103.8572603"><time>2026-03-07T06:33:12Z</time></trkpt>
    <trkpt lat="1.2890503" lon="103.8572423"><time>2026-03-07T06:33:14Z</time></trkpt>
    <trkpt lat="1.2890057" lon="103.8572451"><time>2026-03-07T06:33:16Z</time></trkpt>
    <trkpt lat="1.2889466" lon="103.8572410"><time>2026-03-07T06:33:18Z</time></trkpt>
    <trkpt lat="1.2888952" lon="103.8572229"><time>2026-03-07T06:33:20Z</time></trkpt>
    <trkpt lat="1.2888203" lon="103.8572301"><time>2026-03-07T06:33:22Z</time></trkpt>
    <trkpt lat="1.2887412" lon="103.8572319"><time>2026-03-07T06:33:24Z</time></trkpt>
    <trkpt lat="1.2886889" lon="103.8572178"><time>2026-03-07T06:33:26Z</time></trkpt>
    <trkpt lat="1.2886175" lon="103.8571939"><time>2026-03-07T06:33:28Z</time></trkpt>
    <trkpt lat="1.2885709" lon="103.8571864"><time>2026-03-07T06:33:30Z</time></trkpt>
    <trkpt lat="1.2885281" lon="103.8571722"><time>2026-03-07T06:33:32Z</time></trkpt>
    <trkpt lat="1.2884885" lon="103.8571554"><time>2026-03-07T06:33:34Z</time></trkpt>
    <trkpt lat="1.2884326" lon="103.8571480"><time>2026-03-07T06:33:36Z</time></trkpt>
    <trkpt lat="1.2883774" lon="103.8571454"><time>2026-03-07T06:33:38Z</time></trkpt>
    <trkpt lat="1.2883409" lon="103.8571545"><time>2026-03-07T06:33:40Z</time></trkpt>
    <trkpt lat="1.2882794" lon="103.8571495"><time>2026-03-07T06:33:42Z</time></trkpt>
    <trkpt lat="1.2882124" lon="103.8571271"><time>2026-03-07T06:33:44Z</time></trkpt>
    <trkpt lat="1.2881526" lon="103.8571174"><time>2026-03-07T06:33:46Z</time></trkpt>
    <trkpt lat="1.2880940" lon="103.8571071"><time>2026-03-07T06:33:48Z</time></trkpt>
    <trkpt lat="1.2880221" lon="103.8571023"><time>2026-03-07T06:33:50Z</time></trkpt>
    <trkpt lat="1.2879758" lon="103.8570821"><time>2026-03-07T06:33:52Z</time></trkpt>
    <trkpt lat="1.2879124" lon="103.8570812"><time>2026-03-07T06:33:54Z</time></trkpt>
    <trkpt lat="1.2878480" lon="103.8570842"><time>2026-03-07T06:33:56Z</time></trkpt>
    <trkpt lat="1.2877727" lon="103.8570710"><time>2026-03-07T06:33:58Z</time></trkpt>
    <trkpt lat="1.2877168" lon="103.8570690"><time>2026-03-07T06:34:00Z</time></trkpt>
    <trkpt lat="1.2876679" lon="103.8570687"><time>2026-03-07T06:34:02Z</time></trkpt>
    <trkpt lat="1.2876130" lon="103.8570581"><time>2026-03-07T06:34:04Z</time></trkpt>
    <trkpt lat="1.2875549" lon="103.8570586"><time>2026-03-07T06:34:06Z</time></trkpt>
    <trkpt lat="1.2874991" lon="103.8570450"><time>2026-03-07T06:34:08Z</time></trkpt>
    <trkpt lat="1.2874518" lon="103.8570413"><time>2026-03-07T06:34:10Z</time></trkpt>
    <trkpt lat="1.2873940" lon="103.8570483"><time>2026-03-07T06:34:12Z</time></trkpt>
    <trkpt lat="1.2873306" lon="103.8570477"><time>2026-03-07T06:34:14Z</time></trkpt>
    <trkpt lat="1.2872754" lon="103.8570400"><time>2026-03-07T06:34:16Z</time></trkpt>
    <trkpt lat="1.2872250" lon="103.8570435"><time>2026-03-07T06:34:18Z</time></trkpt>
    <trkpt lat="1.2871739" lon="103.8570245"><time>2026-03-07T06:34:20Z</time></trkpt>
    <trkpt lat="1.2871135" lon="103.8570141"><time>2026-03-07T06:34:22Z</time></trkpt>
    <trkpt lat="1.2870471" lon="103.8569975"><time>2026-03-07T06:34:24Z</time></trkpt>
    <trkpt lat="1.2869921" lon="103.8570116"><time>2026-03-07T06:34:26Z</time></trkpt>
    <trkpt lat="1.2869242" lon="103.8570064"><time>2026-03-07T06:34:28Z</time></trkpt>
    <trkpt lat="1.2868670" lon="103.8569806"><time>2026-03-07T06:34:30Z</time></trkpt>
    <trkpt lat="1.2868194" lon="103.8569651"><time>2026-03-07T06:34:32Z</time></trkpt>
    <trkpt lat="1.2867685" lon="103.8569417"><time>2026-03-07T06:34:34Z</time></trkpt>
    <trkpt lat="1.2867028" lon="103.8569442"><time>2026-03-07T06:34:36Z</time></trkpt>
    <trkpt lat="1.2866372" lon="103.8569399"><time>2026-03-07T06:34:38Z</time></trkpt>
    <trkpt lat="1.2865854" lon="103.8569297"><time>2026-03-07T06:34:40Z</time></trkpt>
    <trkpt lat="1.2865228" lon="103.8569333"><time>2026-03-07T06:34:42Z</time></trkpt>
    <trkpt lat="1.2864778" lon="103.8569205"><time>2026-03-07T06:34:44Z</time></trkpt>
    <trkpt lat="1.2864215" lon="103.8568946"><time>2026-03-07T06:34:46Z</time></trkpt>
    <trkpt lat="1.2863583" lon="103.8568729"><time>2026-03-07T06:34:48Z</time></trkpt>
    <trkpt lat="1.2863095" lon="103.8568675"><time>2026-03-07T06:34:50Z</time></trkpt>
    <trkpt lat="1.2862668" lon="103.8568806"><time>2026-03-07T06:34:52Z</time></trkpt>
    <trkpt lat="1.2862078" lon="103.8568793"><time>2026-03-07T06:34:54Z</time></trkpt>
    <trkpt lat="1.2861520" lon="103.8568617"><time>2026-03-07T06:34:56Z</time></trkpt>
    <trkpt lat="1.2861111" lon="103.8568251"><time>2026-03-07T06:34:58Z</time></trkpt>
    <trkpt lat="1.2860422" lon="103.8568063"><time>2026-03-07T06:35:00Z</time></trkpt>
    <trkpt lat="1.2859933" lon="103.8567903"><time>2026-03-07T06:35:02Z</time></trkpt>
    <trkpt lat="1.2859313" lon="103.8567916"><time>2026-03-07T06:35:04Z</time></trkpt>
    <trkpt lat="1.2858729" lon="103.8567841"><time>2026-03-07T06:35:06Z</time></trkpt>
    <trkpt lat="1.2858168" lon="103.8567622"><time>2026-03-07T06:35:08Z</time></trkpt>
    <trkpt lat="1.2857437" lon="103.8567514"><time>2026-03-07T06:35:10Z</time></trkpt>
    <trkpt lat="1.2856714" lon="103.8567513"><time>2026-03-07T06:35:12Z</time></trkpt>
    <trkpt lat="1.2856054" lon="103.8567419"><time>2026-03-07T06:35:14Z</time></trkpt>
    <trkpt lat="1.2855434" lon="103.8567221"><time>2026-03-07T06:35:16Z</time></trkpt>
    <trkpt lat="1.2854762" lon="103.8567182"><time>2026-03-07T06:35:18Z</time></trkpt>
    <trkpt lat="1.2854377" lon="103.8567049"><time>2026-03-07T06:35:20Z</time></trkpt>
    <trkpt lat="1.2853821" lon="103.8566870"><time>2026-03-07T06:35:22Z</time></trkpt>
    <trkpt lat="1.2853209" lon="103.8566831"><time>2026-03-07T06:35:24Z</time></trkpt>
    <trkpt lat="1.2852593" lon="103.8566769"><time>2026-03-07T06:35:26Z</time></trkpt>
    <trkpt lat="1.2852052" lon="103.8566727"><time>2026-03-07T06:35:28Z</time></trkpt>
    <trkpt lat="1.2851642" lon="103.8566520"><time>2026-03-07T06:35:30Z</time></trkpt>
    <trkpt lat="1.2851054" lon="103.8566404"><time>2026-03-07T06:35:32Z</time></trkpt>
    <trkpt lat="1.2850448" lon="103.8566207"><time>2026-03-07T06:35:34Z</time></trkpt>
    <trkpt lat="1.2849909" lon="103.8566100"><time>2026-03-07T06:35:36Z</time></trkpt>
    <trkpt lat="1.2849220" lon="103.8566112"><time>2026-03-07T06:35:38Z</time></trkpt>
    <trkpt lat="1.2848788" lon="103.8565974"><time>2026-03-07T06:35:40Z</time></trkpt>
    <trkpt lat="1.2848269" lon="103.8565891"><time>2026-03-07T06:35:42Z</time></trkpt>
    <trkpt lat="1.2847739" lon="103.8565947"><time>2026-03-07T06:35:44Z</time></trkpt>
    <trkpt lat="1.2847169" lon="103.8565882"><time>2026-03-07T06:35:46Z</time></trkpt>
    <trkpt lat="1.2846707" lon="103.8565943"><time>2026-03-07T06:35:48Z</time></trkpt>
    <trkpt lat="1.2846188" lon="103.8565747"><time>2026-03-07T06:35:50Z</time></trkpt>
    <trkpt lat="1.2845719" lon="103.8565515"><time>2026-03-07T06:35:52Z</time></trkpt>
    <trkpt lat="1.2845119" lon="103.8565474"><time>2026-03-07T06:35:54Z</time></trkpt>
    <trkpt lat="1.2844359" lon="103.8565322"><time>2026-03-07T06:35:56Z</time></trkpt>
    <trkpt lat="1.2843779" lon="103.8565291"><time>2026-03-07T06:35:58Z</time></trkpt>
    <trkpt lat="1.2843283" lon="103.8565148"><time>2026-03-07T06:36:00Z</time></trkpt>
    <trkpt lat="1.2842652" lon="103.8564973"><time>2026-03-07T06:36:02Z</time></trkpt>
    <trkpt lat="1.2841949" lon="103.8564801"><time>2026-03-07T06:36:04Z</time></trkpt>
    <trkpt lat="1.2841370" lon="103.8564943"><time>2026-03-07T06:36:06Z</time></trkpt>
    <trkpt lat="1.2840900" lon="103.8564794"><time>2026-03-07T06:36:08Z</time></trkpt>
    <trkpt lat="1.2840331" lon="103.8564371"><time>2026-03-07T06:36:10Z</time></trkpt>
    <trkpt lat="1.2839669" lon="103.8564285"><time>2026-03-07T06:36:12Z</time></trkpt>
    <trkpt lat="1.2838908" lon="103.8564243"><time>2026-03-07T06:36:14Z</time></trkpt>
    <trkpt lat="1.2838448" lon="103.8564151"><time>2026-03-07T06:36:16Z</time></trkpt>
    <trkpt lat="1.2837746" lon="103.8563836"><time>2026-03-07T06:36:18Z</time></trkpt>
    <trkpt lat="1.2837194" lon="103.8563740"><time>2026-03-07T06:36:20Z</time></trkpt>
    <trkpt lat="1.2836676" lon="103.8563592"><time>2026-03-07T06:36:22Z</time></trkpt>
    <trkpt lat="1.2835982" lon="103.8563535"><time>2026-03-07T06:36:24Z</time></trkpt>
    <trkpt lat="1.2835303" lon="103.8563439"><time>2026-03-07T06:36:26Z</time></trkpt>
    <trkpt lat="1.2834517" lon="103.8563145"><time>2026-03-07T06:36:28Z</time></trkpt>
    <trkpt lat="1.2833972" lon="103.8563172"><time>2026-03-07T06:36:30Z</time></trkpt>
    <trkpt lat="1.2833292" lon="103.8563283"><time>2026-03-07T06:36:32Z</time></trkpt>
    <trkpt lat="1.2832798" lon="103.8563149"><time>2026-03-07T06:36:34Z</time></trkpt>
    <trkpt lat="1.2832315" lon="103.8563038"><time>2026-03-07T06:36:36Z</time></trkpt>
    <trkpt lat="1.2831716" lon="103.8562958"><time>2026-03-07T06:36:38Z</time></trkpt>
    <trkpt lat="1.2831086" lon="103.8562632"><time>2026-03-07T06:36:40Z</time></trkpt>
    <trkpt lat="1.2830631" lon="103.8562724"><time>2026-03-07T06:36:42Z</time></trkpt>
    <trkpt lat="1.2830035" lon="103.8562771"><time>2026-03-07T06:36:44Z</time></trkpt>
    <trkpt lat="1.2829413" lon="103.8562652"><time>2026-03-07T06:36:46Z</time></trkpt>
    <trkpt lat="1.2828888" lon="103.8562594"><time>2026-03-07T06:36:48Z</time></trkpt>
    <trkpt lat="1.2828530" lon="103.8562541"><time>2026-03-07T06:36:50Z</time></trkpt>
    <trkpt lat="1.2828056" lon="103.8562357"><time>2026-03-07T06:36:52Z</time></trkpt>
    <trkpt lat="1.2827611" lon="103.8562123"><time>2026-03-07T06:36:54Z</time></trkpt>
    <trkpt lat="1.2827042" lon="103.8561996"><time>2026-03-07T06:36:56Z</time></trkpt>
    <trkpt lat="1.2826643" lon="103.8561928"><time>2026-03-07T06:36:58Z</time></trkpt>
    <trkpt lat="1.2826020" lon="103.8561841"><time>2026-03-07T06:37:00Z</time></trkpt>
    <trkpt lat="1.2825477" lon="103.8561640"><time>2026-03-07T06:37:02Z</time></trkpt>
    <trkpt lat="1.2824855" lon="103.8561480"><time>2026-03-07T06:37:04Z</time></trkpt>
    <trkpt lat="1.2824353" lon="103.8561406"><time>2026-03-07T06:37:06Z</time></trkpt>
    <trkpt lat="1.2823847" lon="103.8561263"><time>2026-03-07T06:37:08Z</time></trkpt>
    <trkpt lat="1.2823122" lon="103.8561369"><time>2026-03-07T06:37:10Z</time></trkpt>
    <trkpt lat="1.2822770" lon="103.8561422"><time>2026-03-07T06:37:12Z</time></trkpt>
    <trkpt lat="1.2822249" lon="103.8561270"><time>2026-03-07T06:37:14Z</time></trkpt>
    <trkpt lat="1.2821699" lon="103.8561045"><time>2026-03-07T06:37:16Z</time></trkpt>
    <trkpt lat="1.2821143" lon="103.8560934"><time>2026-03-07T06:37:18Z</time></trkpt>
    <trkpt lat="1.2820475" lon="103.8560764"><time>2026-03-07T06:37:20Z</time></trkpt>
    <trkpt lat="1.2819824" lon="103.8560647"><time>2026-03-07T06:37:22Z</time></trkpt>
    <trkpt lat="1.2819229" lon="103.8560514"><time>2026-03-07T06:37:24Z</time></trkpt>
    <trkpt lat="1.2818641" lon="103.8560334"><time>2026-03-07T06:37:26Z</time></trkpt>
    <trkpt lat="1.2817839" lon="103.8560318"><time>2026-03-07T06:37:28Z</time></trkpt>
    <trkpt lat="1.2817208" lon="103.8560268"><time>2026-03-07T06:37:30Z</time></trkpt>
    <trkpt lat="1.2816522" lon="103.8560084"><time>2026-03-07T06:37:32Z</time></trkpt>
    <trkpt lat="1.2815903" lon="103.8559932"><time>2026-03-07T06:37:34Z</time></trkpt>
    <trkpt lat="1.2815235" lon="103.8559903"><time>2026-03-07T06:37:36Z</time></trkpt>
    <trkpt lat="1.2814619" lon="103.8559938"><time>2026-03-07T06:37:38Z</time></trkpt>
    <trkpt lat="1.2814195" lon="103.8559928"><time>2026-03-07T06:37:40Z</time></trkpt>
    <trkpt lat="1.2813761" lon="103.8559725"><time>2026-03-07T06:37:42Z</time></trkpt>
    <trkpt lat="1.2813169" lon="103.8559868"><time>2026-03-07T06:37:44Z</time></trkpt>
    <trkpt lat="1.2812612" lon="103.8559839"><time>2026-03-07T06:37:46Z</time></trkpt>
    <trkpt lat="1.2812726" lon="103.8559402"><time>2026-03-07T06:37:48Z</time></trkpt>
    <trkpt lat="1.2813070" lon="103.8558835"><time>2026-03-07T06:37:50Z</time></trkpt>
    <trkpt lat="1.2813336" lon="103.8558410"><time>2026-03-07T06:37:52Z</time></trkpt>
    <trkpt lat="1.2813710" lon="103.8558043"><time>2026-03-07T06:37:54Z</time></trkpt>
    <trkpt lat="1.2813896" lon="103.8557585"><time>2026-03-07T06:37:56Z</time></trkpt>
    <trkpt lat="1.2814290" lon="103.8557243"><time>2026-03-07T06:37:58Z</time></trkpt>
    <trkpt lat="1.2814432" lon="103.8556487"><time>2026-03-07T06:38:00Z</time></trkpt>
    <trkpt lat="1.2814786" lon="103.8555913"><time>2026-03-07T06:38:02Z</time></trkpt>
    <trkpt lat="1.2815010" lon="103.8555515"><time>2026-03-07T06:38:04Z</time></trkpt>
    <trkpt lat="1.2815334" lon="103.8555009"><time>2026-03-07T06:38:06Z</time></trkpt>
    <trkpt lat="1.2815643" lon="103.8554352"><time>2026-03-07T06:38:08Z</time></trkpt>
    <trkpt lat="1.2815906" lon="103.8553800"><time>2026-03-07T06:38:10Z</time></trkpt>
    <trkpt lat="1.2816034" lon="103.8553277"><time>2026-03-07T06:38:12Z</time></trkpt>
    <trkpt lat="1.2816291" lon="103.8552660"><time>2026-03-07T06:38:14Z</time></trkpt>
    <trkpt lat="1.2816517" lon="103.8552161"><time>2026-03-07T06:38:16Z</time></trkpt>
    <trkpt lat="1.2816734" lon="103.8551754"><time>2026-03-07T06:38:18Z</time></trkpt>
    <trkpt lat="1.2816955" lon="103.8551112"><time>2026-03-07T06:38:20Z</time></trkpt>
    <trkpt lat="1.2817199" lon="103.8550582"><time>2026-03-07T06:38:22Z</time></trkpt>
    <trkpt lat="1.2817507" lon="103.8550186"><time>2026-03-07T06:38:24Z</time></trkpt>
    <trkpt lat="1.2817822" lon="103.8549770"><time>2026-03-07T06:38:26Z</time></trkpt>
    <trkpt lat="1.2818173" lon="103.8549226"><time>2026-03-07T06:38:28Z</time></trkpt>
    <trkpt lat="1.2818438" lon="103.8548674"><time>2026-03-07T06:38:30Z</time></trkpt>
    <trkpt lat="1.2818688" lon="103.8548051"><time>2026-03-07T06:38:32Z</time></trkpt>
    <trkpt lat="1.2818964" lon="103.8547502"><time>2026-03-07T06:38:34Z</time></trkpt>
    <trkpt lat="1.2819436" lon="103.8547168"><time>2026-03-07T06:38:36Z</time></trkpt>
    <trkpt lat="1.2819654" lon="103.8546742"><time>2026-03-07T06:38:38Z</time></trkpt>
    <trkpt lat="1.2819901" lon="103.8546290"><time>2026-03-07T06:38:40Z</time></trkpt>
    <trkpt lat="1.2820118" lon="103.8545691"><time>2026-03-07T06:38:42Z</time></trkpt>
    <trkpt lat="1.2820283" lon="103.8545133"><time>2026-03-07T06:38:44Z</time></trkpt>
    <trkpt lat="1.2820460" lon="103.8544739"><time>2026-03-07T06:38:46Z</time></trkpt>
    <trkpt lat="1.2820766" lon="103.8544151"><time>2026-03-07T06:38:48Z</time></trkpt>
    <trkpt lat="1.2820883" lon="103.8543547"><time>2026-03-07T06:38:50Z</time></trkpt>
    <trkpt lat="1.2821189" lon="103.8542944"><time>2026-03-07T06:38:52Z</time></trkpt>
    <trkpt lat="1.2821545" lon="103.8542511"><time>2026-03-07T06:38:54Z</time></trkpt>
    <trkpt lat="1.2821780" lon="103.8541993"><time>2026-03-07T06:38:56Z</time></trkpt>
    <trkpt lat="1.2821969" lon="103.8541614"><time>2026-03-07T06:38:58Z</time></trkpt>
    <trkpt lat="1.2822181" lon="103.8541118"><time>2026-03-07T06:39:00Z</time></trkpt>
    <trkpt lat="1.2822517" lon="103.8540605"><time>2026-03-07T06:39:02Z</time></trkpt>
    <trkpt lat="1.2822584" lon="103.8540257"><time>2026-03-07T06:39:04Z</time></trkpt>
    <trkpt lat="1.2822867" lon="103.8539915"><time>2026-03-07T06:39:06Z</time></trkpt>
    <trkpt lat="1.2823321" lon="103.8539457"><time>2026-03-07T06:39:08Z</time></trkpt>
    <trkpt lat="1.2823679" lon="103.8538894"><time>2026-03-07T06:39:10Z</time></trkpt>
    <trkpt lat="1.2824031" lon="103.8538463"><time>2026-03-07T06:39:12Z</time></trkpt>
    <trkpt lat="1.2824413" lon="103.8537907"><time>2026-03-07T06:39:14Z</time></trkpt>
    <trkpt lat="1.2824625" lon="103.8537441"><time>2026-03-07T06:39:16Z</time></trkpt>
    <trkpt lat="1.2825017" lon="103.8537100"><time>2026-03-07T06:39:18Z</time></trkpt>
    <trkpt lat="1.2825300" lon="103.8536374"><time>2026-03-07T06:39:20Z</time></trkpt>
    <trkpt lat="1.2825826" lon="103.8536078"><time>2026-03-07T06:39:22Z</time></trkpt>
    <trkpt lat="1.2826015" lon="103.8535626"><time>2026-03-07T06:39:24Z</time></trkpt>
    <trkpt lat="1.2826487" lon="103.8535122"><time>2026-03-07T06:39:26Z</time></trkpt>
    <trkpt lat="1.2826810" lon="103.8534684"><time>2026-03-07T06:39:28Z</time></trkpt>
    <trkpt lat="1.2827250" lon="103.8534132"><time>2026-03-07T06:39:30Z</time></trkpt>
    <trkpt lat="1.2827633" lon="103.8533638"><time>2026-03-07T06:39:32Z</time></trkpt>
    <trkpt lat="1.2828143" lon="103.8533215"><time>2026-03-07T06:39:34Z</time></trkpt>
    <trkpt lat="1.2828503" lon="103.8532759"><time>2026-03-07T06:39:36Z</time></trkpt>
    <trkpt lat="1.2828947" lon="103.8532106"><time>2026-03-07T06:39:38Z</time></trkpt>
    <trkpt lat="1.2829271" lon="103.8531732"><time>2026-03-07T06:39:40Z</time></trkpt>
    <trkpt lat="1.2829542" lon="103.8531038"><time>2026-03-07T06:39:42Z</time></trkpt>
    <trkpt lat="1.2830081" lon="103.8530592"><time>2026-03-07T06:39:44Z</time></trkpt>
    <trkpt lat="1.2830476" lon="103.8530196"><time>2026-03-07T06:39:46Z</time></trkpt>
    <trkpt lat="1.2830921" lon="103.8529818"><time>2026-03-07T06:39:48Z</time></trkpt>
    <trkpt lat="1.2831141" lon="103.8529239"><time>2026-03-07T06:39:50Z</time></trkpt>
    <trkpt lat="1.2831498" lon="103.8528822"><time>2026-03-07T06:39:52Z</time></trkpt>
    <trkpt lat="1.2832063" lon="103.8528851"><time>2026-03-07T06:39:54Z</time></trkpt>
    <trkpt lat="1.2832627" lon="103.8528816"><time>2026-03-07T06:39:56Z</time></trkpt>
    <trkpt lat="1.2833393" lon="103.8528803"><time>2026-03-07T06:39:58Z</time></trkpt>
    <trkpt lat="1.2834188" lon="103.8528826"><time>2026-03-07T06:40:00Z</time></trkpt>
    <trkpt lat="1.2834596" lon="103.8529066"><time>2026-03-07T06:40:02Z</time></trkpt>
    <trkpt lat="1.2835194" lon="103.8529225"><time>2026-03-07T06:40:04Z</time></trkpt>
    <trkpt lat="1.2835791" lon="103.8529129"><time>2026-03-07T06:40:06Z</time></trkpt>
    <trkpt lat="1.2836360" lon="103.8529186"><time>2026-03-07T06:40:08Z</time></trkpt>
    <trkpt lat="1.2836889" lon="103.8529167"><time>2026-03-07T06:40:10Z</time></trkpt>
    <trkpt lat="1.2837408" lon="103.8529278"><time>2026-03-07T06:40:12Z</time></trkpt>
    <trkpt lat="1.2837934" lon="103.8529283"><time>2026-03-07T06:40:14Z</time></trkpt>
    <trkpt lat="1.2838513" lon="103.8529255"><time>2026-03-07T06:40:16Z</time></trkpt>
    <trkpt lat="1.2839207" lon="103.8529074"><time>2026-03-07T06:40:18Z</time></trkpt>
    <trkpt lat="1.2839791" lon="103.8529170"><time>2026-03-07T06:40:20Z</time></trkpt>
    <trkpt lat="1.2840202" lon="103.8529342"><time>2026-03-07T06:40:22Z</time></trkpt>
    <trkpt lat="1.2840638" lon="103.8529646"><time>2026-03-07T06:40:24Z</time></trkpt>
    <trkpt lat="1.2841226" lon="103.8529752"><time>2026-03-07T06:40:26Z</time></trkpt>
    <trkpt lat="1.2841781" lon="103.8529938"><time>2026-03-07T06:40:28Z</time></trkpt>
    <trkpt lat="1.2842369" lon="103.8529843"><time>2026-03-07T06:40:30Z</time></trkpt>
    <trkpt lat="1.2842904" lon="103.8529654"><time>2026-03-07T06:40:32Z</time></trkpt>
    <trkpt lat="1.2843591" lon="103.8529767"><time>2026-03-07T06:40:34Z</time></trkpt>
    <trkpt lat="1.2844027" lon="103.8530038"><time>2026-03-07T06:40:36Z</time></trkpt>
    <trkpt lat="1.2844428" lon="103.8530261"><time>2026-03-07T06:40:38Z</time></trkpt>
    <trkpt lat="1.2844981" lon="103.8530508"><time>2026-03-07T06:40:40Z</time></trkpt>
    <trkpt lat="1.2845450" lon="103.8530680"><time>2026-03-07T06:40:42Z</time></trkpt>
    <trkpt lat="1.2845925" lon="103.8530845"><time>2026-03-07T06:40:44Z</time></trkpt>
    <trkpt lat="1.2846296" lon="103.8531179"><time>2026-03-07T06:40:46Z</time></trkpt>
    <trkpt lat="1.2846810" lon="103.8531435"><time>2026-03-07T06:40:48Z</time></trkpt>
    <trkpt lat="1.2847407" lon="103.8531826"><time>2026-03-07T06:40:50Z</time></trkpt>
    <trkpt lat="1.2847804" lon="103.8532121"><time>2026-03-07T06:40:52Z</time></trkpt>
    <trkpt lat="1.2848385" lon="103.8532263"><time>2026-03-07T06:40:54Z</time></trkpt>
    <trkpt lat="1.2848920" lon="103.8532715"><time>2026-03-07T06:40:56Z</time></trkpt>
    <trkpt lat="1.2849371" lon="103.8533171"><time>2026-03-07T06:40:58Z</time></trkpt>
    <trkpt lat="1.2850027" lon="103.8533419"><time>2026-03-07T06:41:00Z</time></trkpt>
    <trkpt lat="1.2850577" lon="103.8533608"><time>2026-03-07T06:41:02Z</time></trkpt>
    <trkpt lat="1.2851079" lon="103.8533941"><time>2026-03-07T06:41:04Z</time></trkpt>
    <trkpt lat="1.2851479" lon="103.8534405"><time>2026-03-07T06:41:06Z</time></trkpt>
    <trkpt lat="1.2851765" lon="103.8534639"><time>2026-03-07T06:41:08Z</time></trkpt>
    <trkpt lat="1.2852224" lon="103.8534815"><time>2026-03-07T06:41:10Z</time></trkpt>
    <trkpt lat="1.2852717" lon="103.8535063"><time>2026-03-07T06:41:12Z</time></trkpt>
    <trkpt lat="1.2853165" lon="103.8535382"><time>2026-03-07T06:41:14Z</time></trkpt>
    <trkpt lat="1.2853698" lon="103.8535470"><time>2026-03-07T06:41:16Z</time></trkpt>
    <trkpt lat="1.2854099" lon="103.8535810"><time>2026-03-07T06:41:18Z</time></trkpt>
    <trkpt lat="1.2854798" lon="103.8536026"><time>2026-03-07T06:41:20Z</time></trkpt>
    <trkpt lat="1.2855417" lon="103.8536426"><time>2026-03-07T06:41:22Z</time></trkpt>
    <trkpt lat="1.2855934" lon="103.8536781"><time>2026-03-07T06:41:24Z</time></trkpt>
    <trkpt lat="1.2856478" lon="103.8537039"><time>2026-03-07T06:41:26Z</time></trkpt>
    <trkpt lat="1.2856912" lon="103.8537340"><time>2026-03-07T06:41:28Z</time></trkpt>
    <trkpt lat="1.2857385" lon="103.8537661"><time>2026-03-07T06:41:30Z</time></trkpt>
    <trkpt lat="1.2857772" lon="103.8538070"><time>2026-03-07T06:41:32Z</time></trkpt>
    <trkpt lat="1.2858161" lon="103.8538632"><time>2026-03-07T06:41:34Z</time></trkpt>
    <trkpt lat="1.2858751" lon="103.8538885"><time>2026-03-07T06:41:36Z</time></trkpt>
    <trkpt lat="1.2859192" lon="103.8539101"><time>2026-03-07T06:41:38Z</time></trkpt>
    <trkpt lat="1.2859388" lon="103.8539410"><time>2026-03-07T06:41:40Z</time></trkpt>
    <trkpt lat="1.2859804" lon="103.8539665"><time>2026-03-07T06:41:42Z</time></trkpt>
    <trkpt lat="1.2860371" lon="103.8539950"><time>2026-03-07T06:41:44Z</time></trkpt>
    <trkpt lat="1.2861032" lon="103.8540325"><time>2026-03-07T06:41:46Z</time></trkpt>
    <trkpt lat="1.2861635" lon="103.8540776"><time>2026-03-07T06:41:48Z</time></trkpt>
    <trkpt lat="1.2862231" lon="103.8541069"><time>2026-03-07T06:41:50Z</time></trkpt>
    <trkpt lat="1.2862705" lon="103.8541267"><time>2026-03-07T06:41:52Z</time></trkpt>
    <trkpt lat="1.2863268" lon="103.8541716"><time>2026-03-07T06:41:54Z</time></trkpt>
    <trkpt lat="1.2863689" lon="103.8541873"><time>2026-03-07T06:41:56Z</time></trkpt>
    <trkpt lat="1.2864234" lon="103.8542269"><time>2026-03-07T06:41:58Z</time></trkpt>
    <trkpt lat="1.2864538" lon="103.8542678"><time>2026-03-07T06:42:00Z</time></trkpt>
    <trkpt lat="1.2865006" lon="103.8542844"><time>2026-03-07T06:42:02Z</time></trkpt>
    <trkpt lat="1.2865497" lon="103.8543051"><time>2026-03-07T06:42:04Z</time></trkpt>
    <trkpt lat="1.2866026" lon="103.8543363"><time>2026-03-07T06:42:06Z</time></trkpt>
    <trkpt lat="1.2866574" lon="103.8543661"><time>2026-03-07T06:42:08Z</time></trkpt>
    <trkpt lat="1.2867077" lon="103.8544050"><time>2026-03-07T06:42:10Z</time></trkpt>
    <trkpt lat="1.2867693" lon="103.8544235"><time>2026-03-07T06:42:12Z</time></trkpt>
    <trkpt lat="1.2868000" lon="103.8544600"><time>2026-03-07T06:42:14Z</time></trkpt>
  </trkseg></trk>
</gpx>
