<?xml version="1.0" encoding="UTF-8"?>
<gpx version="1.1" creator="frechet-edit course audit" xmlns="http://www.topografix.com/GPX/1/1">
  <trk><name>Urban-canyon run (synthetic)</name><trkseg>
    <trkpt lat="1.2868000" lon="103.8544600"><time>2026-03-07T06:30:00Z</time></trkpt>
    <trkpt lat="1.2868187" lon="103.8544474"><time>2026-03-07T06:30:02Z</time></trkpt>
    <trkpt lat="1.2868887" lon="103.8544520"><time>2026-03-07T06:30:04Z</time></trkpt>
    <trkpt lat="1.2869540" lon="103.8544342"><time>2026-03-07T06:30:06Z</time></trkpt>
    <trkpt lat="1.2870055" lon="103.8544228"><time>2026-03-07T06:30:08Z</time></trkpt>
    <trkpt lat="1.2870597" lon="103.8544181"><time>2026-03-07T06:30:10Z</time></trkpt>
    <trkpt lat="1.2871093" lon="103.8543999"><time>2026-03-07T06:30:12Z</time></trkpt>
    <trkpt lat="1.2871662" lon="103.8543899"><time>2026-03-07T06:30:14Z</time></trkpt>
    <trkpt lat="1.2872180" lon="103.8543804"><time>2026-03-07T06:30:16Z</time></trkpt>
    <trkpt lat="1.2872673" lon="103.8543666"><time>2026-03-07T06:30:18Z</time></trkpt>
    <trkpt lat="1.2873277" lon="103.8543599"><time>2026-03-07T06:30:20Z</time></trkpt>
    <trkpt lat="1.2873901" lon="103.8543477"><time>2026-03-07T06:30:22Z</time></trkpt>
    <trkpt lat="1.2874557" lon="103.8543221"><time>2026-03-07T06:30:24Z</time></trkpt>
    <trkpt lat="1.2874966" lon="103.8543278"><time>2026-03-07T06:30:26Z</time></trkpt>
    <trkpt lat="1.2875399" lon="103.8542946"><time>2026-03-07T06:30:28Z</time></trkpt>
    <trkpt lat="1.2876003" lon="103.8542883"><time>2026-03-07T06:30:30Z</time></trkpt>
    <trkpt lat="1.2876663" lon="103.8542839"><time>2026-03-07T06:30:32Z</time></trkpt>
    <trkpt lat="1.2877272" lon="103.8542702"><time>2026-03-07T06:30:34Z</time></trkpt>
    <trkpt lat="1.2877936" lon="103.8542528"><time>2026-03-07T06:30:36Z</time></trkpt>
    <trkpt lat="1.2878464" lon="103.8542262"><time>2026-03-07T06:30:38Z</time></trkpt>
    <trkpt lat="1.2879218" lon="103.8542227"><time>2026-03-07T06:30:40Z</time></trkpt>
    <trkpt lat="1.2879676" lon="103.8542240"><time>2026-03-07T06:30:42Z</time></trkpt>
    <trkpt lat="1.2880345" lon="103.8542281"><time>2026-03-07T06:30:44Z</time></trkpt>
    <trkpt lat="1.2881042" lon="103.8542358"><time>2026-03-07T06:30:46Z</time></trkpt>
    <trkpt lat="1.2881711" lon="103.8542274"><time>2026-03-07T06:30:48Z</time></trkpt>
    <trkpt lat="1.2882120" lon="103.8542492"><time>2026-03-07T06:30:50Z</time></trkpt>
    <trkpt lat="1.2882801" lon="103.8542614"><time>2026-03-07T06:30:52Z</time></trkpt>
    <trkpt lat="1.2883452" lon="103.8542729"><time>2026-03-07T06:30:54Z</time></trkpt>
    <trkpt lat="1.2884026" lon="103.8543069"><time>2026-03-07T06:30:56Z</time></trkpt>
    <trkpt lat="1.2884495" lon="103.8543130"><time>2026-03-07T06:30:58Z</time></trkpt>
    <trkpt lat="1.2885029" lon="103.8543286"><time>2026-03-07T06:31:00Z</time></trkpt>
    <trkpt lat="1.2885573" lon="103.8543356"><time>2026-03-07T06:31:02Z</time></trkpt>
    <trkpt lat="1.2886024" lon="103.8543510"><time>2026-03-07T06:31:04Z</time></trkpt>
    <trkpt lat="1.2886347" lon="103.8543445"><time>2026-03-07T06:31:06Z</time></trkpt>
    <trkpt lat="1.2886936" lon="103.8543662"><time>2026-03-07T06:31:08Z</time></trkpt>
    <trkpt lat="1.2887515" lon="103.8543902"><time>2026-03-07T06:31:10Z</time></trkpt>
    <trkpt lat="1.2888142" lon="103.8543908"><time>2026-03-07T06:31:12Z</time></trkpt>
    <trkpt lat="1.2888592" lon="103.8543988"><time>2026-03-07T06:31:14Z</time></trkpt>
    <trkpt lat="1.2889351" lon="103.8543989"><time>2026-03-07T06:31:16Z</time></trkpt>
    <trkpt lat="1.2889962" lon="103.8544121"><time>2026-03-07T06:31:18Z</time></trkpt>
    <trkpt lat="1.2890170" lon="103.8544573"><time>2026-03-07T06:31:20Z</time></trkpt>
    <trkpt lat="1.2890422" lon="103.8545170"><time>2026-03-07T06:31:22Z</time></trkpt>
    <trkpt lat="1.2890672" lon="103.8545598"><time>2026-03-07T06:31:24Z</time></trkpt>
    <trkpt lat="1.2890954" lon="103.8546017"><time>2026-03-07T06:31:26Z</time></trkpt>
    <trkpt lat="1.2891133" lon="103.8546644"><time>2026-03-07T06:31:28Z</time></trkpt>
    <trkpt lat="1.2891334" lon="103.8547294"><time>2026-03-07T06:31:30Z</time></trkpt>
    <trkpt lat="1.2891522" lon="103.8547807"><time>2026-03-07T06:31:32Z</time></trkpt>
    <trkpt lat="1.2891802" lon="103.8548284"><time>2026-03-07T06:31:34Z</time></trkpt>
    <trkpt lat="1.2892007" lon="103.8548742"><time>2026-03-07T06:31:36Z</time></trkpt>
    <trkpt lat="1.2892204" lon="103.8549180"><time>2026-03-07T06:31:38Z</time></trkpt>
    <trkpt lat="1.2892460" lon="103.8549534"><time>2026-03-07T06:31:40Z</time></trkpt>
    <trkpt lat="1.2892832" lon="103.8550096"><time>2026-03-07T06:31:42Z</time></trkpt>
    <trkpt lat="1.2893350" lon="103.8550679"><time>2026-03-07T06:31:44Z</time></trkpt>
    <trkpt lat="1.2893561" lon="103.8551224"><time>2026-03-07T06:31:46Z</time></trkpt>
    <trkpt lat="1.2893717" lon="103.8551921"><time>2026-03-07T06:31:48Z</time></trkpt>
    <trkpt lat="1.2893888" lon="103.8552516"><time>2026-03-07T06:31:50Z</time></trkpt>
    <trkpt lat="1.2893966" lon="103.8553044"><time>2026-03-07T06:31:52Z</time></trkpt>
    <trkpt lat="1.2894235" lon="103.8553626"><time>2026-03-07T06:31:54Z</time></trkpt>
    <trkpt lat="1.2894686" lon="103.8554017"><time>2026-03-07T06:31:56Z</time></trkpt>
    <trkpt lat="1.2894961" lon="103.8554590"><time>2026-03-07T06:31:58Z</time></trkpt>
    <trkpt lat="1.2895226" lon="103.8555008"><time>2026-03-07T06:32:00Z</time></trkpt>
    <trkpt lat="1.2895567" lon="103.8555491"><time>2026-03-07T06:32:02Z</time></trkpt>
    <trkpt lat="1.2895764" lon="103.8556071"><time>2026-03-07T06:32:04Z</time></trkpt>
    <trkpt lat="1.2895753" lon="103.8556546"><time>2026-03-07T06:32:06Z</time></trkpt>
    <trkpt lat="1.2895607" lon="103.8556966"><time>2026-03-07T06:32:08Z</time></trkpt>
    <trkpt lat="1.2895591" lon="103.8557521"><time>2026-03-07T06:32:10Z</time></trkpt>
    <trkpt lat="1.2895421" lon="103.8558217"><time>2026-03-07T06:32:12Z</time></trkpt>
    <trkpt lat="1.2895292" lon="103.8558827"><time>2026-03-07T06:32:14Z</time></trkpt>
    <trkpt lat="1.2895204" lon="103.8559586"><time>2026-03-07T06:32:16Z</time></trkpt>
    <trkpt lat="1.2895028" lon="103.8560175"><time>2026-03-07T06:32:18Z</time></trkpt>
    <trkpt lat="1.2894969" lon="103.8560633"><time>2026-03-07T06:32:20Z</time></trkpt>
    <trkpt lat="1.2894923" lon="103.8561140"><time>2026-03-07T06:32:22Z</time></trkpt>
    <trkpt lat="1.2894904" lon="103.8561535"><time>2026-03-07T06:32:24Z</time></trkpt>
    <trkpt lat="1.2894984" lon="103.8562008"><time>2026-03-07T06:32:26Z</time></trkpt>
    <trkpt lat="1.2894989" lon="103.8562547"><time>2026-03-07T06:32:28Z</time></trkpt>
    <trkpt lat="1.2894921" lon="103.8562979"><time>2026-03-07T06:32:30Z</time></trkpt>
    <trkpt lat="1.2894760" lon="103.8563471"><time>2026-03-07T06:32:32Z</time></trkpt>
    <trkpt lat="1.2894619" lon="103.8564058"><time>2026-03-07T06:32:34Z</time></trkpt>
    <trkpt lat="1.2894588" lon="103.8564668"><time>2026-03-07T06:32:36Z</time></trkpt>
    <trkpt lat="1.2894468" lon="103.8565313"><time>2026-03-07T06:32:38Z</time></trkpt>
    <trkpt lat="1.2894279" lon="103.8565753"><time>2026-03-07T06:32:40Z</time></trkpt>
    <trkpt lat="1.2893966" lon="103.8566318"><time>2026-03-07T06:32:42Z</time></trkpt>
    <trkpt lat="1.2893854" lon="103.8566976"><time>2026-03-07T06:32:44Z</time></trkpt>
    <trkpt lat="1.2893861" lon="103.8567529"><time>2026-03-07T06:32:46Z</time></trkpt>
    <trkpt lat="1.2893788" lon="103.8568174"><time>2026-03-07T06:32:48Z</time></trkpt>
    <trkpt lat="1.2893722" lon="103.8568648"><time>2026-03-07T06:32:50Z</time></trkpt>
    <trkpt lat="1.2893535" lon="103.8569262"><time>2026-03-07T06:32:52Z</time></trkpt>
    <trkpt lat="1.2893492" lon="103.8569942"><time>2026-03-07T06:32:54Z</time></trkpt>
    <trkpt lat="1.2893407" lon="103.8570315"><time>2026-03-07T06:32:56Z</time></trkpt>
    <trkpt lat="1.2893422" lon="103.8570772"><time>2026-03-07T06:32:58Z</time></trkpt>
    <trkpt lat="1.2893207" lon="103.8571442"><time>2026-03-07T06:33:00Z</time></trkpt>
    <trkpt lat="1.2893119" lon="103.8571937"><time>2026-03-07T06:33:02Z</time></trkpt>
    <trkpt lat="1.2893171" lon="103.8572501"><time>2026-03-07T06:33:04Z</time></trkpt>
    <trkpt lat="1.2892993" lon="103.8573153"><time>2026-03-07T06:33:06Z</time></trkpt>
    <trkpt lat="1.2892622" lon="103.8573776"><time>2026-03-07T06:33:08Z</time></trkpt>
    <trkpt lat="1.2892553" lon="103.8574369"><time>2026-03-07T06:33:10Z</time></trkpt>
    <trkpt lat="1.2892322" lon="103.8574910"><time>2026-03-07T06:33:12Z</time></trkpt>
    <trkpt lat="1.2892360" lon="103.8575526"><time>2026-03-07T06:33:14Z</time></trkpt>
    <trkpt lat="1.2892078" lon="103.8576101"><time>2026-03-07T06:33:16Z</time></trkpt>
    <trkpt lat="1.2891730" lon="103.8576798"><time>2026-03-07T06:33:18Z</time></trkpt>
    <trkpt lat="1.2891523" lon="103.8577391"><time>2026-03-07T06:33:20Z</time></trkpt>
    <trkpt lat="1.2891293" lon="103.8578024"><time>2026-03-07T06:33:22Z</time></trkpt>
    <trkpt lat="1.2891181" lon="103.8578690"><time>2026-03-07T06:33:24Z</time></trkpt>
    <trkpt lat="1.2890841" lon="103.8579046"><time>2026-03-07T06:33:26Z</time></trkpt>
    <trkpt lat="1.2890837" lon="103.8579555"><time>2026-03-07T06:33:28Z</time></trkpt>
    <trkpt lat="1.2890700" lon="103.8580112"><time>2026-03-07T06:33:30Z</time></trkpt>
    <trkpt lat="1.2890628" lon="103.8580632"><time>2026-03-07T06:33:32Z</time></trkpt>
    <trkpt lat="1.2890504" lon="103.8581215"><time>2026-03-07T06:33:34Z</time></trkpt>
    <trkpt lat="1.2890467" lon="103.8581661"><time>2026-03-07T06:33:36Z</time></trkpt>
    <trkpt lat="1.2890175" lon="103.8582347"><time>2026-03-07T06:33:38Z</time></trkpt>
    <trkpt lat="1.2890093" lon="103.8583117"><time>2026-03-07T06:33:40Z</time></trkpt>
    <trkpt lat="1.2889745" lon="103.8583595"><time>2026-03-07T06:33:42Z</time></trkpt>
    <trkpt lat="1.2889653" lon="103.8584191"><time>2026-03-07T06:33:44Z</time></trkpt>
    <trkpt lat="1.2889324" lon="103.8584661"><time>2026-03-07T06:33:46Z</time></trkpt>
    <trkpt lat="1.2889126" lon="103.8585307"><time>2026-03-07T06:33:48Z</time></trkpt>
    <trkpt lat="1.2889271" lon="103.8585788"><time>2026-03-07T06:33:50Z</time></trkpt>
    <trkpt lat="1.2889206" lon="103.8586531"><time>2026-03-07T06:33:52Z</time></trkpt>
    <trkpt lat="1.2889105" lon="103.8587006"><time>2026-03-07T06:33:54Z</time></trkpt>
    <trkpt lat="1.2888945" lon="103.8587304"><time>2026-03-07T06:33:56Z</time></trkpt>
    <trkpt lat="1.2888648" lon="103.8587771"><time>2026-03-07T06:33:58Z</time></trkpt>
    <trkpt lat="1.2888539" lon="103.8588163"><time>2026-03-07T06:34:00Z</time></trkpt>
    <trkpt lat="1.2888390" lon="103.8588731"><time>2026-03-07T06:34:02Z</time></trkpt>
    <trkpt lat="1.2888141" lon="103.8589374"><time>2026-03-07T06:34:04Z</time></trkpt>
    <trkpt lat="1.2887805" lon="103.8589803"><time>2026-03-07T06:34:06Z</time></trkpt>
    <trkpt lat="1.2887727" lon="103.8590329"><time>2026-03-07T06:34:08Z</time></trkpt>
    <trkpt lat="1.2887631" lon="103.8590875"><time>2026-03-07T06:34:10Z</time></trkpt>
    <trkpt lat="1.2887418" lon="103.8591319"><time>2026-03-07T06:34:12Z</time></trkpt>
    <trkpt lat="1.2887132" lon="103.8591811"><time>2026-03-07T06:34:14Z</time></trkpt>
    <trkpt lat="1.2887062" lon="103.8592568"><time>2026-03-07T06:34:16Z</time></trkpt>
    <trkpt lat="1.2886825" lon="103.8593050"><time>2026-03-07T06:34:18Z</time></trkpt>
    <trkpt lat="1.2886525" lon="103.8593607"><time>2026-03-07T06:34:20Z</time></trkpt>
    <trkpt lat="1.2886250" lon="103.8594213"><time>2026-03-07T06:34:22Z</time></trkpt>
    <trkpt lat="1.2886008" lon="103.8594734"><time>2026-03-07T06:34:24Z</time></trkpt>
    <trkpt lat="1.2885741" lon="103.8595247"><time>2026-03-07T06:34:26Z</time></trkpt>
    <trkpt lat="1.2885517" lon="103.8595654"><time>2026-03-07T06:34:28Z</time></trkpt>
    <trkpt lat="1.2885364" lon="103.8596160"><time>2026-03-07T06:34:30Z</time></trkpt>
    <trkpt lat="1.2885390" lon="103.8596743"><time>2026-03-07T06:34:32Z</time></trkpt>
    <trkpt lat="1.2885225" lon="103.8597397"><time>2026-03-07T06:34:34Z</time></trkpt>
    <trkpt lat="1.2885018" lon="103.8598036"><time>2026-03-07T06:34:36Z</time></trkpt>
    <trkpt lat="1.2884935" lon="103.8598740"><time>2026-03-07T06:34:38Z</time></trkpt>
    <trkpt lat="1.2884868" lon="103.8599155"><time>2026-03-07T06:34:40Z</time></trkpt>
    <trkpt lat="1.2884451" lon="103.8599795"><time>2026-03-07T06:34:42Z</time></trkpt>
    <trkpt lat="1.2884272" lon="103.8600273"><time>2026-03-07T06:34:44Z</time></trkpt>
    <trkpt lat="1.2884034" lon="103.8600640"><time>2026-03-07T06:34:46Z</time></trkpt>
    <trkpt lat="1.2883957" lon="103.8601116"><time>2026-03-07T06:34:48Z</time></trkpt>
    <trkpt lat="1.2884084" lon="103.8601722"><time>2026-03-07T06:34:50Z</time></trkpt>
    <trkpt lat="1.2884044" lon="103.8602255"><time>2026-03-07T06:34:52Z</time></trkpt>
    <trkpt lat="1.2883815" lon="103.8602741"><time>2026-03-07T06:34:54Z</time></trkpt>
    <trkpt lat="1.2883076" lon="103.8602805"><time>2026-03-07T06:34:56Z</time></trkpt>
    <trkpt lat="1.2882615" lon="103.8602915"><time>2026-03-07T06:34:58Z</time></trkpt>
    <trkpt lat="1.2882131" lon="103.8603261"><time>2026-03-07T06:35:00Z</time></trkpt>
    <trkpt lat="1.2881500" lon="103.8603486"><time>2026-03-07T06:35:02Z</time></trkpt>
    <trkpt lat="1.2881090" lon="103.8603809"><time>2026-03-07T06:35:04Z</time></trkpt>
    <trkpt lat="1.2880533" lon="103.8603916"><time>2026-03-07T06:35:06Z</time></trkpt>
    <trkpt lat="1.2880126" lon="103.8603980"><time>2026-03-07T06:35:08Z</time></trkpt>
    <trkpt lat="1.2879554" lon="103.8604190"><time>2026-03-07T06:35:10Z</time></trkpt>
    <trkpt lat="1.2879036" lon="103.8604396"><time>2026-03-07T06:35:12Z</time></trkpt>
    <trkpt lat="1.2878349" lon="103.8604518"><time>2026-03-07T06:35:14Z</time></trkpt>
    <trkpt lat="1.2877622" lon="103.8604556"><time>2026-03-07T06:35:16Z</time></trkpt>
    <trkpt lat="1.2877300" lon="103.8604776"><time>2026-03-07T06:35:18Z</time></trkpt>
    <trkpt lat="1.2876755" lon="103.8604776"><time>2026-03-07T06:35:20Z</time></trkpt>
    <trkpt lat="1.2876098" lon="103.8604997"><time>2026-03-07T06:35:22Z</time></trkpt>
    <trkpt lat="1.2875437" lon="103.8605194"><time>2026-03-07T06:35:24Z</time></trkpt>
    <trkpt lat="1.2874834" lon="103.8605486"><time>2026-03-07T06:35:26Z</time></trkpt>
    <trkpt lat="1.2874361" lon="103.8605660"><time>2026-03-07T06:35:28Z</time></trkpt>
    <trkpt lat="1.2873637" lon="103.8605780"><time>2026-03-07T06:35:30Z</time></trkpt>
    <trkpt lat="1.2873178" lon="103.8605893"><time>2026-03-07T06:35:32Z</time></trkpt>
    <trkpt lat="1.2872659" lon="103.8606053"><time>2026-03-07T06:35:34Z</time></trkpt>
    <trkpt lat="1.2872130" lon="103.8606114"><time>2026-03-07T06:35:36Z</time></trkpt>
    <trkpt lat="1.2871588" lon="103.8606362"><time>2026-03-07T06:35:38Z</time></trkpt>
    <trkpt lat="1.2871021" lon="103.8606720"><time>2026-03-07T06:35:40Z</time></trkpt>
    <trkpt lat="1.2870315" lon="103.8606772"><time>2026-03-07T06:35:42Z</time></trkpt>
    <trkpt lat="1.2869775" lon="103.8607048"><time>2026-03-07T06:35:44Z</time></trkpt>
    <trkpt lat="1.2869301" lon="103.8606957"><time>2026-03-07T06:35:46Z</time></trkpt>
    <trkpt lat="1.2868904" lon="103.8606898"><time>2026-03-07T06:35:48Z</time></trkpt>
    <trkpt lat="1.2868398" lon="103.8606631"><time>2026-03-07T06:35:50Z</time></trkpt>
    <trkpt lat="1.2867741" lon="103.8606513"><time>2026-03-07T06:35:52Z</time></trkpt>
    <trkpt lat="1.2867334" lon="103.8606425"><time>2026-03-07T06:35:54Z</time></trkpt>
    <trkpt lat="1.2866779" lon="103.8606282"><time>2026-03-07T06:35:56Z</time></trkpt>
    <trkpt lat="1.2866134" lon="103.8606067"><time>2026-03-07T06:35:58Z</time></trkpt>
    <trkpt lat="1.2865549" lon="103.8605828"><time>2026-03-07T06:36:00Z</time></trkpt>
    <trkpt lat="1.2864977" lon="103.8605594"><time>2026-03-07T06:36:02Z</time></trkpt>
    <trkpt lat="1.2864573" lon="103.8605381"><time>2026-03-07T06:36:04Z</time></trkpt>
    <trkpt lat="1.2864135" lon="103.8605011"><time>2026-03-07T06:36:06Z</time></trkpt>
    <trkpt lat="1.2863384" lon="103.8604584"><time>2026-03-07T06:36:08Z</time></trkpt>
    <trkpt lat="1.2862863" lon="103.8604358"><time>2026-03-07T06:36:10Z</time></trkpt>
    <trkpt lat="1.2862176" lon="103.8604189"><time>2026-03-07T06:36:12Z</time></trkpt>
    <trkpt lat="1.2861677" lon="103.8603968"><time>2026-03-07T06:36:14Z</time></trkpt>
    <trkpt lat="1.2861151" lon="103.8603878"><time>2026-03-07T06:36:16Z</time></trkpt>
    <trkpt lat="1.2860539" lon="103.8603707"><time>2026-03-07T06:36:18Z</time></trkpt>
    <trkpt lat="1.2859984" lon="103.8603463"><time>2026-03-07T06:36:20Z</time></trkpt>
    <trkpt lat="1.2859377" lon="103.8603310"><time>2026-03-07T06:36:22Z</time></trkpt>
    <trkpt lat="1.2858930" lon="103.8603000"><time>2026-03-07T06:36:24Z</time></trkpt>
    <trkpt lat="1.2858457" lon="103.8602958"><time>2026-03-07T06:36:26Z</time></trkpt>
    <trkpt lat="1.2857908" lon="103.8602756"><time>2026-03-07T06:36:28Z</time></trkpt>
    <trkpt lat="1.2857448" lon="103.8602632"><time>2026-03-07T06:36:30Z</time></trkpt>
    <trkpt lat="1.2856961" lon="103.8602566"><time>2026-03-07T06:36:32Z</time></trkpt>
    <trkpt lat="1.2856382" lon="103.8602224"><time>2026-03-07T06:36:34Z</time></trkpt>
    <trkpt lat="1.2855738" lon="103.8601888"><time>2026-03-07T06:36:36Z</time></trkpt>
    <trkpt lat="1.2855306" lon="103.8601784"><time>2026-03-07T06:36:38Z</time></trkpt>
    <trkpt lat="1.2854963" lon="103.8601424"><time>2026-03-07T06:36:40Z</time></trkpt>
    <trkpt lat="1.2854335" lon="103.8601222"><time>2026-03-07T06:36:42Z</time></trkpt>
    <trkpt lat="1.2853801" lon="103.8601033"><time>2026-03-07T06:36:44Z</time></trkpt>
    <trkpt lat="1.2853081" lon="103.8600728"><time>2026-03-07T06:36:46Z</time></trkpt>
    <trkpt lat="1.2852596" lon="103.8600510"><time>2026-03-07T06:36:48Z</time></trkpt>
    <trkpt lat="1.2852133" lon="103.8600034"><time>2026-03-07T06:36:50Z</time></trkpt>
    <trkpt lat="1.2851602" lon="103.8599829"><time>2026-03-07T06:36:52Z</time></trkpt>
    <trkpt lat="1.2851150" lon="103.8599471"><time>2026-03-07T06:36:54Z</time></trkpt>
    <trkpt lat="1.2850692" lon="103.8599017"><time>2026-03-07T06:36:56Z</time></trkpt>
    <trkpt lat="1.2850127" lon="103.8598785"><time>2026-03-07T06:36:58Z</time></trkpt>
    <trkpt lat="1.2849733" lon="103.8598434"><time>2026-03-07T06:37:00Z</time></trkpt>
    <trkpt lat="1.2849273" lon="103.8597987"><time>2026-03-07T06:37:02Z</time></trkpt>
    <trkpt lat="1.2848774" lon="103.8597477"><time>2026-03-07T06:37:04Z</time></trkpt>
    <trkpt lat="1.2848397" lon="103.8597117"><time>2026-03-07T06:37:06Z</time></trkpt>
    <trkpt lat="1.2848285" lon="103.8596666"><time>2026-03-07T06:37:08Z</time></trkpt>
    <trkpt lat="1.2847860" lon="103.8596252"><time>2026-03-07T06:37:10Z</time></trkpt>
    <trkpt lat="1.2847382" lon="103.8595876"><time>2026-03-07T06:37:12Z</time></trkpt>
    <trkpt lat="1.2846899" lon="103.8595651"><time>2026-03-07T06:37:14Z</time></trkpt>
    <trkpt lat="1.2846580" lon="103.8595420"><time>2026-03-07T06:37:16Z</time></trkpt>
    <trkpt lat="1.2846241" lon="103.8594942"><time>2026-03-07T06:37:18Z</time></trkpt>
    <trkpt lat="1.2846064" lon="103.8594511"><time>2026-03-07T06:37:20Z</time></trkpt>
    <trkpt lat="1.2845504" lon="103.8594111"><time>2026-03-07T06:37:22Z</time></trkpt>
    <trkpt lat="1.2844918" lon="103.8593561"><time>2026-03-07T06:37:24Z</time></trkpt>
    <trkpt lat="1.2844371" lon="103.8593156"><time>2026-03-07T06:37:26Z</time></trkpt>
    <trkpt lat="1.2843862" lon="103.8592689"><time>2026-03-07T06:37:28Z</time></trkpt>
    <trkpt lat="1.2843570" lon="103.8592330"><time>2026-03-07T06:37:30Z</time></trkpt>
    <trkpt lat="1.2843070" lon="103.8591821"><time>2026-03-07T06:37:32Z</time></trkpt>
    <trkpt lat="1.2842478" lon="103.8591397"><time>2026-03-07T06:37:34Z</time></trkpt>
    <trkpt lat="1.2841957" lon="103.8590945"><time>2026-03-07T06:37:36Z</time></trkpt>
    <trkpt lat="1.2841513" lon="103.8590695"><time>2026-03-07T06:37:38Z</time></trkpt>
    <trkpt lat="1.2841149" lon="103.8590312"><time>2026-03-07T06:37:40Z</time></trkpt>
    <trkpt lat="1.2840697" lon="103.8590012"><time>2026-03-07T06:37:42Z</time></trkpt>
    <trkpt lat="1.2840185" lon="103.8589716"><time>2026-03-07T06:37:44Z</time></trkpt>
    <trkpt lat="1.2839808" lon="103.8589440"><time>2026-03-07T06:37:46Z</time></trkpt>
    <trkpt lat="1.2839258" lon="103.8589053"><time>2026-03-07T06:37:48Z</time></trkpt>
    <trkpt lat="1.2838847" lon="103.8588860"><time>2026-03-07T06:37:50Z</time></trkpt>
    <trkpt lat="1.2838363" lon="103.8588801"><time>2026-03-07T06:37:52Z</time></trkpt>
    <trkpt lat="1.2837905" lon="103.8588502"><time>2026-03-07T06:37:54Z</time></trkpt>
    <trkpt lat="1.2837574" lon="103.8588137"><time>2026-03-07T06:37:56Z</time></trkpt>
    <trkpt lat="1.2837144" lon="103.8587667"><time>2026-03-07T06:37:58Z</time></trkpt>
    <trkpt lat="1.2836734" lon="103.8587299"><time>2026-03-07T06:38:00Z</time></trkpt>
    <trkpt lat="1.2836413" lon="103.8586973"><time>2026-03-07T06:38:02Z</time></trkpt>
    <trkpt lat="1.2836008" lon="103.8586668"><time>2026-03-07T06:38:04Z</time></trkpt>
    <trkpt lat="1.2835464" lon="103.8586240"><time>2026-03-07T06:38:06Z</time></trkpt>
    <trkpt lat="1.2834986" lon="103.8585777"><time>2026-03-07T06:38:08Z</time></trkpt>
    <trkpt lat="1.2834528" lon="103.8585461"><time>2026-03-07T06:38:10Z</time></trkpt>
    <trkpt lat="1.2834169" lon="103.8584950"><time>2026-03-07T06:38:12Z</time></trkpt>
    <trkpt lat="1.2833668" lon="103.8584492"><time>2026-03-07T06:38:14Z</time></trkpt>
    <trkpt lat="1.2833293" lon="103.8584096"><time>2026-03-07T06:38:16Z</time></trkpt>
    <trkpt lat="1.2832757" lon="103.8583485"><time>2026-03-07T06:38:18Z</time></trkpt>
    <trkpt lat="1.2832302" lon="103.8583147"><time>2026-03-07T06:38:20Z</time></trkpt>
    <trkpt lat="1.2831832" lon="103.8582704"><time>2026-03-07T06:38:22Z</time></trkpt>
    <trkpt lat="1.2831372" lon="103.8582488"><time>2026-03-07T06:38:24Z</time></trkpt>
    <trkpt lat="1.2831038" lon="103.8582194"><time>2026-03-07T06:38:26Z</time></trkpt>
    <trkpt lat="1.2830662" lon="103.8581779"><time>2026-03-07T06:38:28Z</time></trkpt>
    <trkpt lat="1.2830177" lon="103.8581366"><time>2026-03-07T06:38:30Z</time></trkpt>
    <trkpt lat="1.2829844" lon="103.8580889"><time>2026-03-07T06:38:32Z</time></trkpt>
    <trkpt lat="1.2829361" lon="103.8580491"><time>2026-03-07T06:38:34Z</time></trkpt>
    <trkpt lat="1.2829116" lon="103.8580023"><time>2026-03-07T06:38:36Z</time></trkpt>
    <trkpt lat="1.2828666" lon="103.8579746"><time>2026-03-07T06:38:38Z</time></trkpt>
    <trkpt lat="1.2828078" lon="103.8579320"><time>2026-03-07T06:38:40Z</time></trkpt>
    <trkpt lat="1.2827680" lon="103.8578995"><time>2026-03-07T06:38:42Z</time></trkpt>
    <trkpt lat="1.2827367" lon="103.8578497"><time>2026-03-07T06:38:44Z</time></trkpt>
    <trkpt lat="1.2826835" lon="103.8578225"><time>2026-03-07T06:38:46Z</time></trkpt>
    <trkpt lat="1.2826362" lon="103.8577813"><time>2026-03-07T06:38:48Z</time></trkpt>
    <trkpt lat="1.2825920" lon="103.8577475"><time>2026-03-07T06:38:50Z</time></trkpt>
    <trkpt lat="1.2825640" lon="103.8576956"><time>2026-03-07T06:38:52Z</time></trkpt>
    <trkpt lat="1.2825327" lon="103.8576640"><time>2026-03-07T06:38:54Z</time></trkpt>
    <trkpt lat="1.2824860" lon="103.8576414"><time>2026-03-07T06:38:56Z</time></trkpt>
    <trkpt lat="1.2824489" lon="103.8576086"><time>2026-03-07T06:38:58Z</time></trkpt>
    <trkpt lat="1.2824059" lon="103.8575766"><time>2026-03-07T06:39:00Z</time></trkpt>
    <trkpt lat="1.2823725" lon="103.8575236"><time>2026-03-07T06:39:02Z</time></trkpt>
    <trkpt lat="1.2823333" lon="103.8574691"><time>2026-03-07T06:39:04Z</time></trkpt>
    <trkpt lat="1.2823009" lon="103.8574030"><time>2026-03-07T06:39:06Z</time></trkpt>
    <trkpt lat="1.2822621" lon="103.8573482"><time>2026-03-07T06:39:08Z</time></trkpt>
    <trkpt lat="1.2822324" lon="103.8573035"><time>2026-03-07T06:39:10Z</time></trkpt>
    <trkpt lat="1.2822014" lon="103.8572779"><time>2026-03-07T06:39:12Z</time></trkpt>
    <trkpt lat="1.2821695" lon="103.8572180"><time>2026-03-07T06:39:14Z</time></trkpt>
    <trkpt lat="1.2821403" lon="103.8571670"><time>2026-03-07T06:39:16Z</time></trkpt>
    <trkpt lat="1.2820998" lon="103.8571155"><time>2026-03-07T06:39:18Z</time></trkpt>
    <trkpt lat="1.2820607" lon="103.8570659"><time>2026-03-07T06:39:20Z</time></trkpt>
    <trkpt lat="1.2820217" lon="103.8570035"><time>2026-03-07T06:39:22Z</time></trkpt>
    <trkpt lat="1.2820016" lon="103.8569601"><time>2026-03-07T06:39:24Z</time></trkpt>
    <trkpt lat="1.2819651" lon="103.8569136"><time>2026-03-07T06:39:26Z</time></trkpt>
    <trkpt lat="1.2819378" lon="103.8568757"><time>2026-03-07T06:39:28Z</time></trkpt>
    <trkpt lat="1.2819107" lon="103.8568473"><time>2026-03-07T06:39:30Z</time></trkpt>
    <trkpt lat="1.2818906" lon="103.8568015"><time>2026-03-07T06:39:32Z</time></trkpt>
    <trkpt lat="1.2818517" lon="103.8567709"><time>2026-03-07T06:39:34Z</time></trkpt>
    <trkpt lat="1.2818012" lon="103.8567256"><time>2026-03-07T06:39:36Z</time></trkpt>
    <trkpt lat="1.2824555" lon="103.8560510"><time>2026-03-07T06:39:38Z</time></trkpt>
    <trkpt lat="1.2817232" lon="103.8566259"><time>2026-03-07T06:39:40Z</time></trkpt>
    <trkpt lat="1.2816906" lon="103.8565775"><time>2026-03-07T06:39:42Z</time></trkpt>
    <trkpt lat="1.2816612" lon="103.8565358"><time>2026-03-07T06:39:44Z</time></trkpt>
    <trkpt lat="1.2816166" lon="103.8564831"><time>2026-03-07T06:39:46Z</time></trkpt>
    <trkpt lat="1.2815996" lon="103.8564487"><time>2026-03-07T06:39:48Z</time></trkpt>
    <trkpt lat="1.2815731" lon="103.8563966"><time>2026-03-07T06:39:50Z</time></trkpt>
    <trkpt lat="1.2815251" lon="103.8563341"><time>2026-03-07T06:39:52Z</time></trkpt>
    <trkpt lat="1.2815082" lon="103.8562852"><time>2026-03-07T06:39:54Z</time></trkpt>
    <trkpt lat="1.2814674" lon="103.8562287"><time>2026-03-07T06:39:56Z</time></trkpt>
    <trkpt lat="1.2814166" lon="103.8561992"><time>2026-03-07T06:39:58Z</time></trkpt>
    <trkpt lat="1.2813907" lon="103.8561588"><time>2026-03-07T06:40:00Z</time></trkpt>
    <trkpt lat="1.2813614" lon="103.8561095"><time>2026-03-07T06:40:02Z</time></trkpt>
    <trkpt lat="1.2813188" lon="103.8560884"><time>2026-03-07T06:40:04Z</time></trkpt>
    <trkpt lat="1.2812857" lon="103.8560364"><time>2026-03-07T06:40:06Z</time></trkpt>
    <trkpt lat="1.2812756" lon="103.8559781"><time>2026-03-07T06:40:08Z</time></trkpt>
    <trkpt lat="1.2813051" lon="103.8559412"><time>2026-03-07T06:40:10Z</time></trkpt>
    <trkpt lat="1.2813250" lon="103.8558700"><time>2026-03-07T06:40:12Z</time></trkpt>
    <trkpt lat="1.2813562" lon="103.8558216"><time>2026-03-07T06:40:14Z</time></trkpt>
    <trkpt lat="1.2813820" lon="103.8557546"><time>2026-03-07T06:40:16Z</time></trkpt>
    <trkpt lat="1.2814126" lon="103.8557055"><time>2026-03-07T06:40:18Z</time></trkpt>
    <trkpt lat="1.2814207" lon="103.8556576"><time>2026-03-07T06:40:20Z</time></trkpt>
    <trkpt lat="1.2823101" lon="103.8570066"><time>2026-03-07T06:40:22Z</time></trkpt>
    <trkpt lat="1.2815056" lon="103.8555882"><time>2026-03-07T06:40:24Z</time></trkpt>
    <trkpt lat="1.2815182" lon="103.8555320"><time>2026-03-07T06:40:26Z</time></trkpt>
    <trkpt lat="1.2815422" lon="103.8554863"><time>2026-03-07T06:40:28Z</time></trkpt>
    <trkpt lat="1.2815576" lon="103.8554270"><time>2026-03-07T06:40:30Z</time></trkpt>
    <trkpt lat="1.2821203" lon="103.8533189"><time>2026-03-07T06:40:32Z</time></trkpt>
    <trkpt lat="1.2816017" lon="103.8553204"><time>2026-03-07T06:40:34Z</time></trkpt>
    <trkpt lat="1.2816300" lon="103.8552548"><time>2026-03-07T06:40:36Z</time></trkpt>
    <trkpt lat="1.2816460" lon="103.8551975"><time>2026-03-07T06:40:38Z</time></trkpt>
    <trkpt lat="1.2816667" lon="103.8551507"><time>2026-03-07T06:40:40Z</time></trkpt>
    <trkpt lat="1.2817065" lon="103.8551047"><time>2026-03-07T06:40:42Z</time></trkpt>
    <trkpt lat="1.2817263" lon="103.8550476"><time>2026-03-07T06:40:44Z</time></trkpt>
    <trkpt lat="1.2817617" lon="103.8549963"><time>2026-03-07T06:40:46Z</time></trkpt>
    <trkpt lat="1.2817889" lon="103.8549430"><time>2026-03-07T06:40:48Z</time></trkpt>
    <trkpt lat="1.2818176" lon="103.8548896"><time>2026-03-07T06:40:50Z</time></trkpt>
    <trkpt lat="1.2818360" lon="103.8548427"><time>2026-03-07T06:40:52Z</time></trkpt>
    <trkpt lat="1.2818622" lon="103.8547845"><time>2026-03-07T06:40:54Z</time></trkpt>
    <trkpt lat="1.2818892" lon="103.8547248"><time>2026-03-07T06:40:56Z</time></trkpt>
    <trkpt lat="1.2819144" lon="103.8546777"><time>2026-03-07T06:40:58Z</time></trkpt>
    <trkpt lat="1.2819321" lon="103.8546188"><time>2026-03-07T06:41:00Z</time></trkpt>
    <trkpt lat="1.2819667" lon="103.8545838"><time>2026-03-07T06:41:02Z</time></trkpt>
    <trkpt lat="1.2819836" lon="103.8545192"><time>2026-03-07T06:41:04Z</time></trkpt>
    <trkpt lat="1.2820243" lon="103.8544851"><time>2026-03-07T06:41:06Z</time></trkpt>
    <trkpt lat="1.2820604" lon="103.8544324"><time>2026-03-07T06:41:08Z</time></trkpt>
    <trkpt lat="1.2820842" lon="103.8543637"><time>2026-03-07T06:41:10Z</time></trkpt>
    <trkpt lat="1.2820895" lon="103.8543183"><time>2026-03-07T06:41:12Z</time></trkpt>
    <trkpt lat="1.2821310" lon="103.8542624"><time>2026-03-07T06:41:14Z</time></trkpt>
    <trkpt lat="1.2821587" lon="103.8542262"><time>2026-03-07T06:41:16Z</time></trkpt>
    <trkpt lat="1.2822085" lon="103.8541810"><time>2026-03-07T06:41:18Z</time></trkpt>
    <trkpt lat="1.2822281" lon="103.8541290"><time>2026-03-07T06:41:20Z</time></trkpt>
    <trkpt lat="1.2822579" lon="103.8540806"><time>2026-03-07T06:41:22Z</time></trkpt>
    <trkpt lat="1.2822935" lon="103.8540457"><time>2026-03-07T06:41:24Z</time></trkpt>
    <trkpt lat="1.2823512" lon="103.8539892"><time>2026-03-07T06:41:26Z</time></trkpt>
    <trkpt lat="1.2823881" lon="103.8539363"><time>2026-03-07T06:41:28Z</time></trkpt>
    <trkpt lat="1.2824278" lon="103.8538956"><time>2026-03-07T06:41:30Z</time></trkpt>
    <trkpt lat="1.2809317" lon="103.8549870"><time>2026-03-07T06:41:32Z</time></trkpt>
    <trkpt lat="1.2824822" lon="103.8538008"><time>2026-03-07T06:41:34Z</time></trkpt>
    <trkpt lat="1.2825126" lon="103.8537507"><time>2026-03-07T06:41:36Z</time></trkpt>
    <trkpt lat="1.2825466" lon="103.8537014"><time>2026-03-07T06:41:38Z</time></trkpt>
    <trkpt lat="1.2825922" lon="103.8536478"><time>2026-03-07T06:41:40Z</time></trkpt>
    <trkpt lat="1.2826021" lon="103.8536163"><time>2026-03-07T06:41:42Z</time></trkpt>
    <trkpt lat="1.2826284" lon="103.8535684"><time>2026-03-07T06:41:44Z</time></trkpt>
    <trkpt lat="1.2826663" lon="103.8534946"><time>2026-03-07T06:41:46Z</time></trkpt>
    <trkpt lat="1.2826961" lon="103.8534424"><time>2026-03-07T06:41:48Z</time></trkpt>
    <trkpt lat="1.2827407" lon="103.8533902"><time>2026-03-07T06:41:50Z</time></trkpt>
    <trkpt lat="1.2827764" lon="103.8533572"><time>2026-03-07T06:41:52Z</time></trkpt>
    <trkpt lat="1.2828082" lon="103.8533178"><time>2026-03-07T06:41:54Z</time></trkpt>
    <trkpt lat="1.2828338" lon="103.8532724"><time>2026-03-07T06:41:56Z</time></trkpt>
    <trkpt lat="1.2828602" lon="103.8532258"><time>2026-03-07T06:41:58Z</time></trkpt>
    <trkpt lat="1.2829025" lon="103.8531826"><time>2026-03-07T06:42:00Z</time></trkpt>
    <trkpt lat="1.2829476" lon="103.8531385"><time>2026-03-07T06:42:02Z</time></trkpt>
    <trkpt lat="1.2829593" lon="103.8531178"><time>2026-03-07T06:42:04Z</time></trkpt>
    <trkpt lat="1.2829878" lon="103.8530687"><time>2026-03-07T06:42:06Z</time></trkpt>
    <trkpt lat="1.2830087" lon="103.8530152"><time>2026-03-07T06:42:08Z</time></trkpt>
    <trkpt lat="1.2830415" lon="103.8529671"><time>2026-03-07T06:42:10Z</time></trkpt>
    <trkpt lat="1.2830760" lon="103.8529160"><time>2026-03-07T06:42:12Z</time></trkpt>
    <trkpt lat="1.2831121" lon="103.8529138"><time>2026-03-07T06:42:14Z</time></trkpt>
    <trkpt lat="1.2831699" lon="103.8529286"><time>2026-03-07T06:42:16Z</time></trkpt>
    <trkpt lat="1.2832337" lon="103.8529227"><time>2026-03-07T06:42:18Z</time></trkpt>
    <trkpt lat="1.2832725" lon="103.8529203"><time>2026-03-07T06:42:20Z</time></trkpt>
    <trkpt lat="1.2833175" lon="103.8529338"><time>2026-03-07T06:42:22Z</time></trkpt>
    <trkpt lat="1.2833812" lon="103.8529358"><time>2026-03-07T06:42:24Z</time></trkpt>
    <trkpt lat="1.2834550" lon="103.8529535"><time>2026-03-07T06:42:26Z</time></trkpt>
    <trkpt lat="1.2835083" lon="103.8529585"><time>2026-03-07T06:42:28Z</time></trkpt>
    <trkpt lat="1.2835803" lon="103.8529578"><time>2026-03-07T06:42:30Z</time></trkpt>
    <trkpt lat="1.2836459" lon="103.8529793"><time>2026-03-07T06:42:32Z</time></trkpt>
    <trkpt lat="1.2841852" lon="103.8543778"><time>2026-03-07T06:42:34Z</time></trkpt>
    <trkpt lat="1.2837703" lon="103.8529750"><time>2026-03-07T06:42:36Z</time></trkpt>
    <trkpt lat="1.2838351" lon="103.8529758"><time>2026-03-07T06:42:38Z</time></trkpt>
    <trkpt lat="1.2839033" lon="103.8529823"><time>2026-03-07T06:42:40Z</time></trkpt>
    <trkpt lat="1.2839660" lon="103.8529989"><time>2026-03-07T06:42:42Z</time></trkpt>
    <trkpt lat="1.2840064" lon="103.8529787"><time>2026-03-07T06:42:44Z</time></trkpt>
    <trkpt lat="1.2840642" lon="103.8529849"><time>2026-03-07T06:42:46Z</time></trkpt>
    <trkpt lat="1.2841223" lon="103.8530109"><time>2026-03-07T06:42:48Z</time></trkpt>
    <trkpt lat="1.2841900" lon="103.8530124"><time>2026-03-07T06:42:50Z</time></trkpt>
    <trkpt lat="1.2842453" lon="103.8530263"><time>2026-03-07T06:42:52Z</time></trkpt>
    <trkpt lat="1.2842908" lon="103.8530370"><time>2026-03-07T06:42:54Z</time></trkpt>
    <trkpt lat="1.2843549" lon="103.8530526"><time>2026-03-07T06:42:56Z</time></trkpt>
    <trkpt lat="1.2844150" lon="103.8530644"><time>2026-03-07T06:42:58Z</time></trkpt>
    <trkpt lat="1.2844729" lon="103.8530981"><time>2026-03-07T06:43:00Z</time></trkpt>
    <trkpt lat="1.2845282" lon="103.8531335"><time>2026-03-07T06:43:02Z</time></trkpt>
    <trkpt lat="1.2845677" lon="103.8531382"><time>2026-03-07T06:43:04Z</time></trkpt>
    <trkpt lat="1.2846269" lon="103.8531597"><time>2026-03-07T06:43:06Z</time></trkpt>
    <trkpt lat="1.2846696" lon="103.8531763"><time>2026-03-07T06:43:08Z</time></trkpt>
    <trkpt lat="1.2847328" lon="103.8532013"><time>2026-03-07T06:43:10Z</time></trkpt>
    <trkpt lat="1.2847687" lon="103.8532158"><time>2026-03-07T06:43:12Z</time></trkpt>
    <trkpt lat="1.2847979" lon="103.8532517"><time>2026-03-07T06:43:14Z</time></trkpt>
    <trkpt lat="1.2848452" lon="103.8532840"><time>2026-03-07T06:43:16Z</time></trkpt>
    <trkpt lat="1.2844517" lon="103.8527457"><time>2026-03-07T06:43:18Z</time></trkpt>
    <trkpt lat="1.2849471" lon="103.8533169"><time>2026-03-07T06:43:20Z</time></trkpt>
    <trkpt lat="1.2850139" lon="103.8533507"><time>2026-03-07T06:43:22Z</time></trkpt>
    <trkpt lat="1.2850658" lon="103.8533803"><time>2026-03-07T06:43:24Z</time></trkpt>
    <trkpt lat="1.2851163" lon="103.8534042"><time>2026-03-07T06:43:26Z</time></trkpt>
    <trkpt lat="1.2851481" lon="103.8534445"><time>2026-03-07T06:43:28Z</time></trkpt>
    <trkpt lat="1.2851949" lon="103.8534799"><time>2026-03-07T06:43:30Z</time></trkpt>
    <trkpt lat="1.2852506" lon="103.8535090"><time>2026-03-07T06:43:32Z</time></trkpt>
    <trkpt lat="1.2853050" lon="103.8535457"><time>2026-03-07T06:43:34Z</time></trkpt>
    <trkpt lat="1.2853599" lon="103.8535694"><time>2026-03-07T06:43:36Z</time></trkpt>
    <trkpt lat="1.2854094" lon="103.8535973"><time>2026-03-07T06:43:38Z</time></trkpt>
    <trkpt lat="1.2854696" lon="103.8536272"><time>2026-03-07T06:43:40Z</time></trkpt>
    <trkpt lat="1.2855221" lon="103.8536561"><time>2026-03-07T06:43:42Z</time></trkpt>
    <trkpt lat="1.2855717" lon="103.8536709"><time>2026-03-07T06:43:44Z</time></trkpt>
    <trkpt lat="1.2856287" lon="103.8536825"><time>2026-03-07T06:43:46Z</time></trkpt>
    <trkpt lat="1.2856898" lon="103.8537063"><time>2026-03-07T06:43:48Z</time></trkpt>
    <trkpt lat="1.2857333" lon="103.8537696"><time>2026-03-07T06:43:50Z</time></trkpt>
    <trkpt lat="1.2857851" lon="103.8538141"><time>2026-03-07T06:43:52Z</time></trkpt>
    <trkpt lat="1.2858243" lon="103.8538389"><time>2026-03-07T06:43:54Z</time></trkpt>
    <trkpt lat="1.2858864" lon="103.8538753"><time>2026-03-07T06:43:56Z</time></trkpt>
    <trkpt lat="1.2859187" lon="103.8539092"><time>2026-03-07T06:43:58Z</time></trkpt>
    <trkpt lat="1.2859649" lon="103.8539290"><time>2026-03-07T06:44:00Z</time></trkpt>
    <trkpt lat="1.2860163" lon="103.8539734"><time>2026-03-07T06:44:02Z</time></trkpt>
    <trkpt lat="1.2860767" lon="103.8540066"><time>2026-03-07T06:44:04Z</time></trkpt>
    <trkpt lat="1.2861234" lon="103.8540344"><time>2026-03-07T06:44:06Z</time></trkpt>
    <trkpt lat="1.2861535" lon="103.8540626"><time>2026-03-07T06:44:08Z</time></trkpt>
    <trkpt lat="1.2862066" lon="103.8540974"><time>2026-03-07T06:44:10Z</time></trkpt>
    <trkpt lat="1.2862435" lon="103.8541370"><time>2026-03-07T06:44:12Z</time></trkpt>
    <trkpt lat="1.2863023" lon="103.8541582"><time>2026-03-07T06:44:14Z</time></trkpt>
    <trkpt lat="1.2863648" lon="103.8541914"><time>2026-03-07T06:44:16Z</time></trkpt>
    <trkpt lat="1.2864146" lon="103.8542127"><time>2026-03-07T06:44:18Z</time></trkpt>
    <trkpt lat="1.2864654" lon="103.8542364"><time>2026-03-07T06:44:20Z</time></trkpt>
    <trkpt lat="1.2865184" lon="103.8542626"><time>2026-03-07T06:44:22Z</time></trkpt>
    <trkpt lat="1.2865724" lon="103.8543046"><time>2026-03-07T06:44:24Z</time></trkpt>
    <trkpt lat="1.2866286" lon="103.8543172"><time>2026-03-07T06:44:26Z</time></trkpt>
    <trkpt lat="1.2866647" lon="103.8543534"><time>2026-03-07T06:44:28Z</time></trkpt>
    <trkpt lat="1.2867120" lon="103.8543760"><time>2026-03-07T06:44:30Z</time></trkpt>
    <trkpt lat="1.2867549" lon="103.8544137"><time>2026-03-07T06:44:32Z</time></trkpt>
    <trkpt lat="1.2868055" lon="103.8544291"><time>2026-03-07T06:44:34Z</time></trkpt>
    <trkpt lat="1.2868000" lon="103.8544600"><time>2026-03-07T06:44:36Z</time></trkpt>
  </trkseg></trk>
</gpx>
